satname,norad_id,inclination_deg,eccentricity,mean_motion_rev_per_day,perigee_km,apogee_km,l1,l2
STARLINK-1183,45088,53.0552,0.0001351,15.0639841,546.2808158150237,548.1520463120978,1 45088U 20006AW  25339.15507570  .00000574  00000+0  57426-4 0  9998,2 45088  53.0552 311.0019 0001351  84.4929 275.6214 15.06398410322773
STARLINK-1142,45093,53.0252,0.0008601,15.81518594,320.37915389265436,331.9118606616721,1 45093U 20006BB  25339.33336806  .00464309  00000+0  21630-2 0  9992,2 45093  53.0252 227.6063 0008601 164.5178 108.9225 15.81518594  5967
STARLINK-1152,45096,53.0467,0.0004945,15.27565281,479.70029205543506,486.4860486939351,1 45096U 20006BE  25339.24408850  .00096275  00000+0  34904-2 0  9995,2 45096  53.0467 288.0736 0004945  13.5316 346.5814 15.27565281323108
STARLINK-1184,45098,53.0581,0.0001549,15.06394337,546.1561750919091,548.3016534521503,1 45098U 20006BG  25339.30252645  .00001998  00000+0  15303-3 0  9994,2 45098  53.0581 310.3417 0001549 103.7199 256.3962 15.06394337322795
STARLINK-1193,45100,53.0543,0.0001108,15.06389176,546.4773998420551,548.0120644338976,1 45100U 20006BJ  25339.29883344 -.00000768  00000+0 -32711-4 0  9991,2 45100  53.0543 310.3502 0001108  64.2901 295.8203 15.06389176322796
STARLINK-1143,45179,53.0535,0.0004758,15.44835724,428.62061047210955,435.1010043856586,1 45179U 20012B   25338.65398426  .00041380  00000+0  87266-3 0  9992,2 45179  53.0535  68.1285 0004758 162.1781 197.9392 15.44835724321154
STARLINK-1202,45183,53.0542,0.0001487,15.06397496,546.1894318765153,548.2490328200165,1 45183U 20012F   25338.69800955  .00000570  00000+0  57182-4 0  9997,2 45183  53.0542 113.0533 0001487  61.8763 298.2376 15.06397496320528
STARLINK-1216,45185,53.0544,0.0001261,15.06400988,546.3352437909152,548.0818159335458,1 45185U 20012H   25338.69065152  .00005138  00000+0  36356-3 0  9995,2 45185  53.0544 113.0839 0001261  91.5560 268.5573 15.06400988320469
STARLINK-1225,45187,53.0533,0.0001081,15.06398851,546.4664489002389,547.9637100198197,1 45187U 20012K   25338.64272412  .00000669  00000+0  63804-4 0  9994,2 45187  53.0533 113.2991 0001081  90.1248 269.9865 15.06398851320507
STARLINK-1230,45189,53.0544,0.0001358,15.06412478,546.2328577886528,548.1137720701881,1 45189U 20012M   25339.24353422 -.00005021  00000+0 -31830-3 0  9996,2 45189  53.0544 110.6065 0001358  81.5403 278.5740 15.06412478317829
STARLINK-1234,45190,53.0512,0.0005385,15.41935617,436.72528317459455,444.0688443612735,1 45190U 20012N   25339.22737787  .00037324  00000+0  86904-3 0  9997,2 45190  53.0512  59.7562 0005385 326.8395  33.2271 15.41935617321217
STARLINK-1269,45197,53.0542,0.0001458,15.06398196,546.207370318095,548.2268035698489,1 45197U 20012V   25338.65746479 -.00000088  00000+0  12957-4 0  9994,2 45197  53.0542 113.2341 0001458  93.3735 266.7421 15.06398196320483
STARLINK-1154,45198,53.0554,0.0001175,15.0639478,546.4138261972666,548.0412868680514,1 45198U 20012W   25339.31172906  .00003068  00000+0  22477-3 0  9994,2 45198  53.0554  90.2978 0001175  47.7775 312.3314 15.06394780320833
STARLINK-1199,45201,53.0534,0.0001197,15.06386008,546.4254723794193,548.0834110905698,1 45201U 20012Z   25339.32279232 -.00001629  00000+0 -90549-4 0  9999,2 45201  53.0534  90.2495 0001197  86.5213 273.5913 15.06386008320895
STARLINK-1209,45206,53.0536,0.0005874,15.35386938,455.7548364915374,463.78801130793363,1 45206U 20012AE  25339.29738677  .00045776  00000+0  13151-2 0  9994,2 45206  53.0536  61.5811 0005874 333.2364  26.8333 15.35386938320349
STARLINK-1210,45207,53.0217,0.000321,15.65691376,369.08455028567914,373.41765744836266,1 45207U 20012AF  25339.26781183  .00097199  00000+0  93908-3 0  9997,2 45207  53.0217  16.6898 0003210 150.7704 209.3491 15.65691376321920
STARLINK-1231,45212,53.0522,0.0004228,15.14754569,518.8065070246821,524.6410292902356,1 45212U 20012AL  25339.30819994  .00055532  00000+0  29527-2 0  9990,2 45212  53.0522  86.9320 0004228 138.8786 221.2526 15.14754569320897
STARLINK-1271,45217,53.056,0.0001341,15.06390282,546.3126491330377,548.1700356044603,1 45217U 20012AR  25339.30804618 -.00000890  00000+0 -40890-4 0  9999,2 45217  53.0560  90.3111 0001341  96.2756 263.8386 15.06390282320893
STARLINK-1191,45222,53.0552,0.0001724,15.06401364,546.0134481072064,548.401306848561,1 45222U 20012AW  25338.65378221  .00002106  00000+0  16025-3 0  9990,2 45222  53.0552  73.2500 0001724  84.3383 275.7802 15.06401364321071
STARLINK-1212,45223,53.0556,0.0001309,15.0640478,546.2903817569077,548.1034341740142,1 45223U 20012AX  25338.53959830  .00000657  00000+0  62972-4 0  9991,2 45223  53.0556  74.4197 0001309  91.9078 268.2061 15.06404780321052
STARLINK-1215,45225,53.0553,0.0001348,15.0638425,546.3262863477839,548.1933733331098,1 45225U 20012AZ  25339.29144758 -.00003942  00000+0 -24601-3 0  9990,2 45225  53.0553  70.3865 0001348  86.4674 273.6469 15.06384250321121
STARLINK-1221,45227,53.0683,0.0005432,15.38199267,447.7244439317237,455.14409015624096,1 45227U 20012BB  25339.29296309  .00026012  00000+0  68894-3 0  9995,2 45227  53.0683 355.6516 0005432  70.4882 289.6707 15.38199267322165
STARLINK-1222,45228,53.0571,8.6e-05,15.10982288,532.6086342253102,533.7973847069379,1 45228U 20012BC  25338.57085560  .00006843  00000+0  42229-3 0  9995,2 45228  53.0571  73.3725 0000860  71.8288 288.2796 15.10982288320954
STARLINK-1226,45229,53.0548,0.0001181,15.06387241,546.4327744286884,548.0685509946197,1 45229U 20012BD  25339.28775837 -.00004577  00000+0 -28870-3 0  9998,2 45229  53.0548  70.4012 0001181  89.5948 270.5176 15.06387241321064
STARLINK-1227,45230,53.0575,0.0001633,15.06394316,546.0980663700966,548.3598908987187,1 45230U 20012BE  25339.28408255 -.00002637  00000+0 -15820-3 0  9993,2 45230  53.0575  70.4206 0001633 105.8469 254.2700 15.06394316321189
STARLINK-1246,45235,53.0546,0.0001311,15.06408169,546.278611329336,548.0944311566054,1 45235U 20012BK  25338.70169521  .00000112  00000+0  26401-4 0  9996,2 45235  53.0546 113.0360 0001311  81.2047 278.9091 15.06408169320546
STARLINK-1270,45237,53.0544,0.0001413,15.06399791,546.2336466515026,548.1907503349967,1 45237U 20012BM  25338.50634455  .00002048  00000+0  15636-3 0  9996,2 45237  53.0544  73.9100 0001413  91.6039 268.5112 15.06399791321057
STARLINK-1279,45360,53.0496,0.0009531,15.39665951,440.5912204586757,453.60148027114246,1 45360U 20019A   25339.17630691  .00084592  00000+0  20953-2 0  9993,2 45360  53.0496 190.8608 0009531 122.1267 238.0662 15.39665951316038
STARLINK-1301,45361,53.0496,0.0009034,15.42449784,432.72320477321136,445.0401941594082,1 45361U 20019B   25339.21027441  .00053266  00000+0  12116-2 0  9998,2 45361  53.0496 199.7777 0009034 116.8615 243.3314 15.42449784315927
STARLINK-1306,45362,53.038,0.0003624,15.83899147,316.9990692438096,321.85346309913075,1 45362U 20019C   25339.33336806  .00226399  00000+0  97275-3 0  9999,2 45362  53.0380 180.0449 0003624  91.4759 270.1213 15.83899147  6048
STARLINK-1262,45366,53.0535,0.0001574,15.06404819,546.1067408984154,548.2868359750146,1 45366U 20019G   25339.14770152  .00000984  00000+0  84944-4 0  9998,2 45366  53.0535 231.0315 0001574 100.3620 259.7547 15.06404819315489
STARLINK-1273,45367,53.0531,0.0001468,15.06405465,546.1781698415234,548.2114472605135,1 45367U 20019H   25339.10347648  .00007837  00000+0  54433-3 0  9998,2 45367  53.0531 231.2295 0001468  83.2042 276.9114 15.06405465315472
STARLINK-1276,45368,53.0541,0.000137,15.0641169,546.2269621596288,548.1244978476507,1 45368U 20019J   25339.14033308  .00005502  00000+0  38788-3 0  9990,2 45368  53.0541 231.0682 0001370  99.9900 260.1244 15.06411690315488
STARLINK-1277,45369,53.0536,0.0001164,15.06403369,546.3951230874873,548.0073418280035,1 45369U 20019K   25339.00034448  .00001559  00000+0  12349-3 0  9995,2 45369  53.0536 232.3234 0001164  83.2053 276.9068 15.06403369315456
STARLINK-1281,45370,53.0536,0.0001204,15.06386211,546.420002504994,548.087636614343,1 45370U 20019L   25339.12927906  .00002166  00000+0  16434-3 0  9994,2 45370  53.0536 231.1190 0001204  86.7147 273.3980 15.06386211315486
STARLINK-1300,45374,53.0537,0.0001986,15.06396465,545.847015850035,548.5977686006281,1 45374U 20019Q   25339.01869337 -.00004636  00000+0 -29254-3 0  9999,2 45374  53.0537 231.6111 0001986  80.6315 279.4899 15.06396465315462
STARLINK-1302,45375,53.0527,0.0001391,15.06407146,546.226343626141,548.1529695019972,1 45375U 20019R   25339.23248924  .00006913  00000+0  48246-3 0  9997,2 45375  53.0527 230.6518 0001391 122.8713 237.2410 15.06407146315496
STARLINK-1304,45376,53.054,0.0001125,15.06395998,546.4447204263925,548.0029266116835,1 45376U 20019S   25339.11820807  .00048566  00000+0  32573-2 0  9996,2 45376  53.0540 231.1663 0001125  78.0113 282.1002 15.06395998315475
STARLINK-1305,45377,53.0507,0.000875,15.36221971,451.3123097533189,463.27431279805023,1 45377U 20019T   25338.83496905  .00113069  00000+0  31174-2 0  9990,2 45377  53.0507 223.5440 0008750 111.0512 249.1427 15.36221971315565
STARLINK-1319,45379,53.053,0.0006906,15.41068916,438.24268625073546,447.6639762162349,1 45379U 20019V   25339.01130011  .00071323  00000+0  16923-2 0  9997,2 45379  53.0530 223.9885 0006906 118.9595 241.2102 15.41068916315576
STARLINK-1266,45383,53.0538,0.0001429,15.06400923,546.2190971729742,548.1983609823437,1 45383U 20019Z   25338.93945163  .00005614  00000+0  39547-3 0  9992,2 45383  53.0538 211.9715 0001429 103.5479 256.5669 15.06400923315727
STARLINK-1267,45384,53.0555,0.0001721,15.06399258,546.0219791841455,548.4056849405406,1 45384U 20019AA  25338.92479377  .00003607  00000+0  26096-3 0  9996,2 45384  53.0555 212.6899 0001721  92.0343 268.0843 15.06399258315714
STARLINK-1272,45386,53.0509,0.0009117,15.39274969,442.02844025425384,454.4756780647258,1 45386U 20019AC  25339.22956891  .00060900  00000+0  15356-2 0  9998,2 45386  53.0509 201.1659 0009117 122.5817 237.6068 15.39274969315903
